{"type": "FeatureCollection", "features": [ {"type": "Feature", "properties": {"norad_id": 32260, "name": "GPS BIIRM-4 (PRN 15)", "group": "gnss", "lat": -52.63045142341753, "lon": -19.864563322699087, "alt_km": 20621.177530406647, "timestamp": "2025-12-09T14:52:26.403980+00:00", "meta": {"OBJECT_NAME": "GPS BIIRM-4 (PRN 15)", "OBJECT_ID": "2007-047A", "EPOCH": "2025-12-09T06:19:25.464288", "MEAN_MOTION": 2.00564591, "ECCENTRICITY": 0.01642696, "INCLINATION": 53.953, "RA_OF_ASC_NODE": 87.9021, "ARG_OF_PERICENTER": 85.2089, "MEAN_ANOMALY": 276.6577, "EPHEMERIS_TYPE": 0, "CLASSIFICATION_TYPE": "U", "NORAD_CAT_ID": 32260, "ELEMENT_SET_NO": 999, "REV_AT_EPOCH": 13300, "BSTAR": 0, "MEAN_MOTION_DOT": -1.5e-07, "MEAN_MOTION_DDOT": 0}, "tle": {"line1": "1 32260U 07047A   25343.26348917 -.00000015  00000+0  00000+0 0  9993", "line2": "2 32260  53.9530  87.9021 0164269  85.2089 276.6577  2.00564591133006"}}, "geometry": {"type": "Point", "coordinates": [-19.864563322699087, -52.63045142341753]}}, {"type": "Feature", "properties": {"norad_id": 32275, "name": "COSMOS 2433 (720)", "group": "gnss", "lat": -34.26951681926261, "lon": 160.2387388473421, "alt_km": 19122.967787484962, "timestamp": "2025-12-09T14:52:26.403998+00:00", "meta": {"OBJECT_NAME": "COSMOS 2433 (720)", "OBJECT_ID": "2007-052A", "EPOCH": "2025-12-07T22:15:39.436992", "MEAN_MOTION": 2.13103936, "ECCENTRICITY": 0.00054366, "INCLINATION": 65.6859, "RA_OF_ASC_NODE": 322.3673, "ARG_OF_PERICENTER": 253.7081, "MEAN_ANOMALY": 106.2283, "EPHEMERIS_TYPE": 0, "CLASSIFICATION_TYPE": "U", "NORAD_CAT_ID": 32275, "ELEMENT_SET_NO": 999, "REV_AT_EPOCH": 14098, "BSTAR": 0, "MEAN_MOTION_DOT": -4.9e-07, "MEAN_MOTION_DDOT": 0}, "tle": {"line1": "1 32275U 07052A   25341.92753978 -.00000049  00000+0  00000+0 0  9990", "line2": "2 32275  65.6859 322.3673 0005436 253.7081 106.2283  2.13103936140982"}}, "geometry": {"type": "Point", "coordinates": [160.2387388473421, -34.26951681926261]}}, {"type": "Feature", "properties": {"norad_id": 32276, "name": "COSMOS 2432 (719)", "group": "gnss", "lat": 15.804669440596577, "lon": 135.07844346220182, "alt_km": 19152.811733614504, "timestamp": "2025-12-09T14:52:26.404010+00:00", "meta": {"OBJECT_NAME": "COSMOS 2432 (719)", "OBJECT_ID": "2007-052B", "EPOCH": "2025-12-09T01:26:40.433280", "MEAN_MOTION": 2.13102951, "ECCENTRICITY": 0.00112538, "INCLINATION": 65.7012, "RA_OF_ASC_NODE": 322.4539, "ARG_OF_PERICENTER": 311.2818, "MEAN_ANOMALY": 142.0612, "EPHEMERIS_TYPE": 0, "CLASSIFICATION_TYPE": "U", "NORAD_CAT_ID": 32276, "ELEMENT_SET_NO": 999, "REV_AT_EPOCH": 14103, "BSTAR": 0, "MEAN_MOTION_DOT": -4.9e-07, "MEAN_MOTION_DDOT": 0}, "tle": {"line1": "1 32276U 07052B   25343.06019020 -.00000049  00000+0  00000+0 0  9991", "line2": "2 32276  65.7012 322.4539 0011253 311.2818 142.0612  2.13102951141036"}}, "geometry": {"type": "Point", "coordinates": [135.07844346220182, 15.804669440596577]}}, {"type": "Feature", "properties": {"norad_id": 32384, "name": "GPS BIIRM-5 (PRN 29)", "group": "gnss", "lat": 22.616459103268937, "lon": -61.41382158200258, "alt_km": 20238.33443242153, "timestamp": "2025-12-09T14:52:26.404022+00:00", "meta": {"OBJECT_NAME": "GPS BIIRM-5 (PRN 29)", "OBJECT_ID": "2007-062A", "EPOCH": "2025-12-09T04:27:19.804896", "MEAN_MOTION": 2.00577042, "ECCENTRICITY": 0.00322219, "INCLINATION": 55.1854, "RA_OF_ASC_NODE": 281.7885, "ARG_OF_PERICENTER": 162.5723, "MEAN_ANOMALY": 272.1574, "EPHEMERIS_TYPE": 0, "CLASSIFICATION_TYPE": "U", "NORAD_CAT_ID": 32384, "ELEMENT_SET_NO": 999, "REV_AT_EPOCH": 13170, "BSTAR": 0, "MEAN_MOTION_DOT": -5.2e-07, "MEAN_MOTION_DDOT": 0}, "tle": {"line1": "1 32384U 07062A   25343.18564589 -.00000052  00000+0  00000+0 0  9994", "line2": "2 32384  55.1854 281.7885 0032221 162.5723 272.1574  2.00577042131702"}}, "geometry": {"type": "Point", "coordinates": [-61.41382158200258, 22.616459103268937]}}, {"type": "Feature", "properties": {"norad_id": 32393, "name": "COSMOS 2434 (721)", "group": "gnss", "lat": 58.546265114750405, "lon": -33.576965073278444, "alt_km": 19114.84536325362, "timestamp": "2025-12-09T14:52:26.404034+00:00", "meta": {"OBJECT_NAME": "COSMOS 2434 (721)", "OBJECT_ID": "2007-065A", "EPOCH": "2025-12-09T05:35:23.361792", "MEAN_MOTION": 2.13101149, "ECCENTRICITY": 0.00042885, "INCLINATION": 64.3147, "RA_OF_ASC_NODE": 198.3216, "ARG_OF_PERICENTER": 70.9906, "MEAN_ANOMALY": 101.028, "EPHEMERIS_TYPE": 0, "CLASSIFICATION_TYPE": "U", "NORAD_CAT_ID": 32393, "ELEMENT_SET_NO": 999, "REV_AT_EPOCH": 13972, "BSTAR": 0, "MEAN_MOTION_DOT": 4.5e-07, "MEAN_MOTION_DDOT": 0}, "tle": {"line1": "1 32393U 07065A   25343.23290928  .00000045  00000+0  00000+0 0  9997", "line2": "2 32393  64.3147 198.3216 0004288  70.9906 101.0280  2.13101149139726"}}, "geometry": {"type": "Point", "coordinates": [-33.576965073278444, 58.546265114750405]}}, {"type": "Feature", "properties": {"norad_id": 32395, "name": "COSMOS 2436 (723)", "group": "gnss", "lat": -52.5014058711013, "lon": 57.21265413799301, "alt_km": 19163.58222880993, "timestamp": "2025-12-09T14:52:26.404046+00:00", "meta": {"OBJECT_NAME": "COSMOS 2436 (723)", "OBJECT_ID": "2007-065C", "EPOCH": "2025-12-08T02:01:11.627904", "MEAN_MOTION": 2.13100022, "ECCENTRICITY": 0.00177472, "INCLINATION": 64.3236, "RA_OF_ASC_NODE": 198.4308, "ARG_OF_PERICENTER": 9.2257, "MEAN_ANOMALY": 134.6131, "EPHEMERIS_TYPE": 0, "CLASSIFICATION_TYPE": "U", "NORAD_CAT_ID": 32395, "ELEMENT_SET_NO": 999, "REV_AT_EPOCH": 13965, "BSTAR": 0, "MEAN_MOTION_DOT": 5.1e-07, "MEAN_MOTION_DDOT": 0}, "tle": {"line1": "1 32395U 07065C   25342.08416236  .00000051  00000+0  00000+0 0  9990", "line2": "2 32395  64.3236 198.4308 0017747   9.2257 134.6131  2.13100022139656"}}, "geometry": {"type": "Point", "coordinates": [57.21265413799301, -52.5014058711013]}}, {"type": "Feature", "properties": {"norad_id": 32711, "name": "GPS BIIRM-6 (PRN 07)", "group": "gnss", "lat": -35.229717241772434, "lon": 127.18352735203723, "alt_km": 19992.357387332944, "timestamp": "2025-12-09T14:52:26.404058+00:00", "meta": {"OBJECT_NAME": "GPS BIIRM-6 (PRN 07)", "OBJECT_ID": "2008-012A", "EPOCH": "2025-12-08T16:26:43.186848", "MEAN_MOTION": 2.00565395, "ECCENTRICITY": 0.0202275, "INCLINATION": 54.4766, "RA_OF_ASC_NODE": 157.5348, "ARG_OF_PERICENTER": 244.9025, "MEAN_ANOMALY": 112.9918, "EPHEMERIS_TYPE": 0, "CLASSIFICATION_TYPE": "U", "NORAD_CAT_ID": 32711, "ELEMENT_SET_NO": 999, "REV_AT_EPOCH": 12993, "BSTAR": 0, "MEAN_MOTION_DOT": 6e-07, "MEAN_MOTION_DDOT": 0}, "tle": {"line1": "1 32711U 08012A   25342.68522207  .00000060  00000+0  00000+0 0  9997", "line2": "2 32711  54.4766 157.5348 0202275 244.9025 112.9918  2.00565395129935"}}, "geometry": {"type": "Point", "coordinates": [127.18352735203723, -35.229717241772434]}}, {"type": "Feature", "properties": {"norad_id": 35752, "name": "GPS BIIRM-8 (PRN 05)", "group": "gnss", "lat": -22.868245130760073, "lon": 18.453193887657378, "alt_km": 20231.190868131063, "timestamp": "2025-12-09T14:52:26.404070+00:00", "meta": {"OBJECT_NAME": "GPS BIIRM-8 (PRN 05)", "OBJECT_ID": "2009-043A", "EPOCH": "2025-12-09T03:40:35.787936", "MEAN_MOTION": 2.00565819, "ECCENTRICITY": 0.0051902, "INCLINATION": 56.0885, "RA_OF_ASC_NODE": 34.9246, "ARG_OF_PERICENTER": 81.9687, "MEAN_ANOMALY": 273.8421, "EPHEMERIS_TYPE": 0, "CLASSIFICATION_TYPE": "U", "NORAD_CAT_ID": 35752, "ELEMENT_SET_NO": 999, "REV_AT_EPOCH": 11954, "BSTAR": 0, "MEAN_MOTION_DOT": -8.5e-07, "MEAN_MOTION_DDOT": 0}, "tle": {"line1": "1 35752U 09043A   25343.15319199 -.00000085  00000+0  00000+0 0  9995", "line2": "2 35752  56.0885  34.9246 0051902  81.9687 273.8421  2.00565819119543"}}, "geometry": {"type": "Point", "coordinates": [18.453193887657378, -22.868245130760073]}}, {"type": "Feature", "properties": {"norad_id": 36111, "name": "COSMOS 2456 (730)", "group": "gnss", "lat": -64.59754553005286, "lon": -22.2788905026955, "alt_km": 19130.3082506432, "timestamp": "2025-12-09T14:52:26.404082+00:00", "meta": {"OBJECT_NAME": "COSMOS 2456 (730)", "OBJECT_ID": "2009-070A", "EPOCH": "2025-12-09T05:47:54.858624", "MEAN_MOTION": 2.13103359, "ECCENTRICITY": 0.00028383, "INCLINATION": 64.8981, "RA_OF_ASC_NODE": 77.4578, "ARG_OF_PERICENTER": 298.5783, "MEAN_ANOMALY": 37.1692, "EPHEMERIS_TYPE": 0, "CLASSIFICATION_TYPE": "U", "NORAD_CAT_ID": 36111, "ELEMENT_SET_NO": 999, "REV_AT_EPOCH": 12437, "BSTAR": 0, "MEAN_MOTION_DOT": -1.7e-07, "MEAN_MOTION_DDOT": 0}, "tle": {"line1": "1 36111U 09070A   25343.24160716 -.00000017  00000+0  00000+0 0  9999", "line2": "2 36111  64.8981  77.4578 0002838 298.5783  37.1692  2.13103359124373"}}, "geometry": {"type": "Point", "coordinates": [-22.2788905026955, -64.59754553005286]}}, {"type": "Feature", "properties": {"norad_id": 36112, "name": "COSMOS 2457 (733)", "group": "gnss", "lat": 31.257815246121066, "lon": 93.81645829083224, "alt_km": 19132.81233210045, "timestamp": "2025-12-09T14:52:26.404094+00:00", "meta": {"OBJECT_NAME": "COSMOS 2457 (733)", "OBJECT_ID": "2009-070B", "EPOCH": "2025-12-08T14:21:11.818944", "MEAN_MOTION": 2.13100771, "ECCENTRICITY": 0.0004866, "INCLINATION": 64.883, "RA_OF_ASC_NODE": 77.3275, "ARG_OF_PERICENTER": 155.8932, "MEAN_ANOMALY": 175.3227, "EPHEMERIS_TYPE": 0, "CLASSIFICATION_TYPE": "U", "NORAD_CAT_ID": 36112, "ELEMENT_SET_NO": 999, "REV_AT_EPOCH": 12436, "BSTAR": 0, "MEAN_MOTION_DOT": -1.5e-07, "MEAN_MOTION_DDOT": 0}, "tle": {"line1": "1 36112U 09070B   25342.59805346 -.00000015  00000+0  00000+0 0  9990", "line2": "2 36112  64.8830  77.3275 0004866 155.8932 175.3227  2.13100771124367"}}, "geometry": {"type": "Point", "coordinates": [93.81645829083224, 31.257815246121066]}}]}